[{"OBJECT_NAME":"SAUDICOMSAT 2","OBJECT_ID":"2004-025E","EPOCH":"2026-03-09T23:03:17.488512","MEAN_MOTION":14.49909502,"ECCENTRICITY":0.00552225,"INCLINATION":98.6687,"RA_OF_ASC_NODE":78.3866,"ARG_OF_PERICENTER":199.0256,"MEAN_ANOMALY":160.8875,"EPHEMERIS_TYPE":0,"CLASSIFICATION_TYPE":"U","NORAD_CAT_ID":28370,"ELEMENT_SET_NO":999,"REV_AT_EPOCH":14572,"BSTAR":0.00011691026,"MEAN_MOTION_DOT":4.11e-6,"MEAN_MOTION_DDOT":0},{"OBJECT_NAME":"SL-16 DEB","OBJECT_ID":"1992-093FP","EPOCH":"2026-03-09T11:14:28.789728","MEAN_MOTION":14.15512113,"ECCENTRICITY":0.01492543,"INCLINATION":71.2977,"RA_OF_ASC_NODE":108.1506,"ARG_OF_PERICENTER":303.6849,"MEAN_ANOMALY":55.0118,"EPHEMERIS_TYPE":0,"CLASSIFICATION_TYPE":"U","NORAD_CAT_ID":22474,"ELEMENT_SET_NO":999,"REV_AT_EPOCH":67622,"BSTAR":0.0022999412,"MEAN_MOTION_DOT":4.966e-5,"MEAN_MOTION_DDOT":0}]
